0 COSMOS 2251 DEB
1 35968U 93036AVJ 13283.70844337  .00004293  00000-0  71658-3 0  4303
2 35968 073.7230 310.6639 0121428 240.2912 118.6362 14.65486609241497
0 COSMOS 2251 DEB
1 35968U 93036AVJ 13285.41504426  .00004415  00000-0  73699-3 0  4319
2 35968 073.7219 307.3168 0120980 237.2404 121.7099 14.65503309241745
0 COSMOS 2251 DEB
1 35968U 93036AVJ 13287.39467863  .00004496  00000-0  75031-3 0  4323
2 35968 073.7219 303.4315 0120828 232.7942 126.2153 14.65522609242032
0 COSMOS 2251 DEB
1 35968U 93036AVJ 13287.73599324  .00004670  00000-0  77914-3 0  4336
2 35968 073.7202 302.7588 0120599 232.3027 126.7582 14.65528852242085
0 COSMOS 2251 DEB
1 35968U 93036AVJ 13289.37428203  .00004712  00000-0  78561-3 0  4342
2 35968 073.7211 299.5442 0120712 228.7290 130.3518 14.65544945242323
0 COSMOS 2251 DEB
1 35968U 93036AVJ 13289.71559005  .00004976  00000-0  82917-3 0  4358
2 35968 073.7208 298.8744 0120725 228.5543 130.5908 14.65553194242375
0 COSMOS 2251 DEB
1 35968U 93036AVJ 13290.32993004  .00005183  00000-0  86305-3 0  4365
2 35968 073.7211 297.6679 0120762 227.6175 131.5296 14.65563352242463
0 COSMOS 2251 DEB
1 35968U 93036AVJ 13290.67122451  .00005349  00000-0  88807-3 0  4377
2 35968 073.7257 296.9967 0122160 225.7631 133.3936 14.65569495242516
0 COSMOS 2251 DEB
1 35968U 93036AVJ 13292.30946365  .00005794  00000-0  96261-3 0  4385
2 35968 073.7228 293.7811 0121133 222.6397 136.5630 14.65593703242752
0 COSMOS 2251 DEB
1 35968U 93036AVJ 13293.33334964  .00006022  00000-0  10003-2 0  4390
2 35968 073.7217 291.7735 0120819 220.2275 139.0138 14.65608892242906
0 COSMOS 2251 DEB
1 35968U 93036AVJ 13295.31284316  .00006156  00000-0  10235-2 0  4402
2 35968 073.7209 287.8881 0119937 216.5062 142.7965 14.65634781243193
0 COSMOS 2251 DEB
1 35968U 93036AVJ 13295.65413078  .00006200  00000-0  10289-2 0  4418
2 35968 073.7199 287.2147 0120869 215.2231 144.1092 14.65639552243244
